start=new Date('2023-04-04T00:00:00.000Z').valueOf();
sats=[{"SEMIMAJOR_AXIS":"6732.896","TLE_LINE2":"2 55965  69.9949 132.8384 0004179 269.6941  46.8969 15.71447750  1302","OBJECT_TYPE":"PAYLOAD","CENTER_NAME":"EARTH","REF_FRAME":"TEME","SITE":"AFWTR","MEAN_MOTION_DDOT":"0.0000000000000","PERIAPSIS":"351.947","ELEMENT_SET_NO":"999","BSTAR":"-0.00709410000000","TIME_SYSTEM":"UTC","COUNTRY_CODE":"US","ECCENTRICITY":"0.00041790","REV_AT_EPOCH":"130","INCLINATION":"69.9949","APOAPSIS":"357.574","EPHEMERIS_TYPE":"0","MEAN_MOTION":"15.71447750","DECAY_DATE":null,"CLASSIFICATION_TYPE":"U","PERIOD":"91.635","MEAN_ANOMALY":"46.8969","LAUNCH_DATE":"2023-03-17","OBJECT_NAME":"STARLINK-5894","TLE_LINE1":"1 55965U 23037BD  23093.91667824 -.00825398  00000-0 -70941-2 0  9995","MEAN_ELEMENT_THEORY":"SGP4","OBJECT_ID":"2023-037BD","RA_OF_ASC_NODE":"132.8384","NORAD_CAT_ID":"55965","GP_ID":"229427965","ARG_OF_PERICENTER":"269.6941","FILE":"3879321","EPOCH":"2023-04-03T22:00:00.999936","MEAN_MOTION_DOT":"-0.00825398","RCS_SIZE":"LARGE"},{"NORAD_CAT_ID":"55986","GP_ID":"229395887","ARG_OF_PERICENTER":"266.7466","FILE":"3879090","EPOCH":"2023-04-03T22:00:00.999936","MEAN_MOTION_DOT":"-0.00662582","RCS_SIZE":null,"APOAPSIS":"348.841","MEAN_MOTION":"15.73840581","EPHEMERIS_TYPE":"0","DECAY_DATE":null,"PERIOD":"91.496","CLASSIFICATION_TYPE":"U","LAUNCH_DATE":"2023-03-24","MEAN_ANOMALY":"1.5146","OBJECT_NAME":"STARLINK-5905","TLE_LINE1":"1 55986U 23042A   23093.91667824 -.00662582  00000-0 -49099-2 0  9998","MEAN_ELEMENT_THEORY":"SGP4","OBJECT_ID":"2023-042A","RA_OF_ASC_NODE":"132.2130","BSTAR":"-0.00490990000000","TIME_SYSTEM":"UTC","COUNTRY_CODE":"US","ECCENTRICITY":"0.00013480","REV_AT_EPOCH":"197","INCLINATION":"43.0016","SEMIMAJOR_AXIS":"6726.069","TLE_LINE2":"2 55986  43.0016 132.2130 0001348 266.7466   1.5146 15.73840581  1970","OBJECT_TYPE":"PAYLOAD","CENTER_NAME":"EARTH","REF_FRAME":"TEME","SITE":"AFETR","MEAN_MOTION_DDOT":"0.0000000000000","PERIAPSIS":"347.028","ELEMENT_SET_NO":"999"},{"CLASSIFICATION_TYPE":"U","PERIOD":"91.488","APOAPSIS":"348.687","EPHEMERIS_TYPE":"0","MEAN_MOTION":"15.73983439","DECAY_DATE":null,"MEAN_ELEMENT_THEORY":"SGP4","OBJECT_ID":"2023-042B","RA_OF_ASC_NODE":"132.2065","LAUNCH_DATE":"2023-03-24","MEAN_ANOMALY":"341.1017","OBJECT_NAME":"STARLINK-5915","TLE_LINE1":"1 55987U 23042B   23093.91667824 -.00695496  00000-0 -51414-2 0  9993","NORAD_CAT_ID":"55987","RCS_SIZE":null,"GP_ID":"229427967","ARG_OF_PERICENTER":"290.5806","FILE":"3879321","EPOCH":"2023-04-03T22:00:00.999936","MEAN_MOTION_DOT":"-0.00695496","SEMIMAJOR_AXIS":"6725.662","TLE_LINE2":"2 55987  43.0005 132.2065 0001724 290.5806 341.1017 15.73983439  1304","OBJECT_TYPE":"PAYLOAD","CENTER_NAME":"EARTH","PERIAPSIS":"346.368","ELEMENT_SET_NO":"999","REF_FRAME":"TEME","SITE":"AFETR","MEAN_MOTION_DDOT":"0.0000000000000","COUNTRY_CODE":"US","BSTAR":"-0.00514140000000","TIME_SYSTEM":"UTC","REV_AT_EPOCH":"130","INCLINATION":"43.0005","ECCENTRICITY":"0.00017240"},{"COUNTRY_CODE":"US","TIME_SYSTEM":"UTC","BSTAR":"-0.00478890000000","INCLINATION":"43.0018","REV_AT_EPOCH":"197","ECCENTRICITY":"0.00015170","CENTER_NAME":"EARTH","TLE_LINE2":"2 55988  43.0018 132.2109 0001517 268.2648   0.9880 15.73864842  1971","SEMIMAJOR_AXIS":"6726.000","OBJECT_TYPE":"PAYLOAD","ELEMENT_SET_NO":"999","PERIAPSIS":"346.845","SITE":"AFETR","MEAN_MOTION_DDOT":"0.0000000000000","REF_FRAME":"TEME","NORAD_CAT_ID":"55988","RCS_SIZE":null,"EPOCH":"2023-04-03T22:00:00.999936","MEAN_MOTION_DOT":"-0.00648091","GP_ID":"229395912","FILE":"3879092","ARG_OF_PERICENTER":"268.2648","CLASSIFICATION_TYPE":"U","PERIOD":"91.495","DECAY_DATE":null,"APOAPSIS":"348.886","EPHEMERIS_TYPE":"0","MEAN_MOTION":"15.73864842","OBJECT_ID":"2023-042C","RA_OF_ASC_NODE":"132.2109","MEAN_ELEMENT_THEORY":"SGP4","OBJECT_NAME":"STARLINK-5916","TLE_LINE1":"1 55988U 23042C   23093.91667824 -.00648091  00000-0 -47889-2 0  9994","MEAN_ANOMALY":"0.9880","LAUNCH_DATE":"2023-03-24"},{"GP_ID":"229396215","ARG_OF_PERICENTER":"264.1148","FILE":"3879093","EPOCH":"2023-04-03T22:00:00.999936","MEAN_MOTION_DOT":"-0.00657019","RCS_SIZE":null,"NORAD_CAT_ID":"55989","LAUNCH_DATE":"2023-03-24","MEAN_ANOMALY":"6.1222","OBJECT_NAME":"STARLINK-5947","TLE_LINE1":"1 55989U 23042D   23093.91667824 -.00657019  00000-0 -48526-2 0  9994","MEAN_ELEMENT_THEORY":"SGP4","OBJECT_ID":"2023-042D","RA_OF_ASC_NODE":"132.2087","APOAPSIS":"348.581","MEAN_MOTION":"15.73902213","EPHEMERIS_TYPE":"0","DECAY_DATE":null,"PERIOD":"91.492","CLASSIFICATION_TYPE":"U","ECCENTRICITY":"0.00012230","REV_AT_EPOCH":"197","INCLINATION":"43.0017","BSTAR":"-0.00485260000000","TIME_SYSTEM":"UTC","COUNTRY_CODE":"US","REF_FRAME":"TEME","SITE":"AFETR","MEAN_MOTION_DDOT":"0.0000000000000","PERIAPSIS":"346.936","ELEMENT_SET_NO":"999","TLE_LINE2":"2 55989  43.0017 132.2087 0001223 264.1148   6.1222 15.73902213  1973","SEMIMAJOR_AXIS":"6725.894","OBJECT_TYPE":"PAYLOAD","CENTER_NAME":"EARTH"},{"MEAN_ANOMALY":"356.8575","LAUNCH_DATE":"2023-03-24","OBJECT_NAME":"STARLINK-5946","TLE_LINE1":"1 55990U 23042E   23093.91667824 -.00648777  00000-0 -47979-2 0  9998","MEAN_ELEMENT_THEORY":"SGP4","OBJECT_ID":"2023-042E","RA_OF_ASC_NODE":"132.2123","APOAPSIS":"348.932","EPHEMERIS_TYPE":"0","MEAN_MOTION":"15.73847878","DECAY_DATE":null,"CLASSIFICATION_TYPE":"U","PERIOD":"91.496","GP_ID":"229427928","ARG_OF_PERICENTER":"271.9084","FILE":"3879321","EPOCH":"2023-04-03T22:00:00.999936","MEAN_MOTION_DOT":"-0.00648777","RCS_SIZE":null,"NORAD_CAT_ID":"55990","REF_FRAME":"TEME","SITE":"AFETR","MEAN_MOTION_DDOT":"0.0000000000000","PERIAPSIS":"346.895","ELEMENT_SET_NO":"999","OBJECT_TYPE":"PAYLOAD","TLE_LINE2":"2 55990  43.0019 132.2123 0001514 271.9084 356.8575 15.73847878  1304","SEMIMAJOR_AXIS":"6726.049","CENTER_NAME":"EARTH","ECCENTRICITY":"0.00015140","REV_AT_EPOCH":"130","INCLINATION":"43.0019","BSTAR":"-0.00479790000000","TIME_SYSTEM":"UTC","COUNTRY_CODE":"US"},{"CENTER_NAME":"EARTH","OBJECT_TYPE":"PAYLOAD","TLE_LINE2":"2 55991  43.0015 132.2021 0001279 262.9027   9.7681 15.73992472  1306","SEMIMAJOR_AXIS":"6725.637","SITE":"AFETR","MEAN_MOTION_DDOT":"0.0000000000000","REF_FRAME":"TEME","ELEMENT_SET_NO":"999","PERIAPSIS":"346.642","TIME_SYSTEM":"UTC","BSTAR":"-0.00490680000000","COUNTRY_CODE":"US","ECCENTRICITY":"0.00012790","INCLINATION":"43.0015","REV_AT_EPOCH":"130","DECAY_DATE":null,"APOAPSIS":"348.362","MEAN_MOTION":"15.73992472","EPHEMERIS_TYPE":"0","CLASSIFICATION_TYPE":"U","PERIOD":"91.487","OBJECT_NAME":"STARLINK-5948","TLE_LINE1":"1 55991U 23042F   23093.91667824 -.00666249  00000-0 -49068-2 0  9994","MEAN_ANOMALY":"9.7681","LAUNCH_DATE":"2023-03-24","OBJECT_ID":"2023-042F","RA_OF_ASC_NODE":"132.2021","MEAN_ELEMENT_THEORY":"SGP4","NORAD_CAT_ID":"55991","EPOCH":"2023-04-03T22:00:00.999936","MEAN_MOTION_DOT":"-0.00666249","GP_ID":"229428126","ARG_OF_PERICENTER":"262.9027","FILE":"3879321","RCS_SIZE":null},{"LAUNCH_DATE":"2023-03-24","MEAN_ANOMALY":"5.6614","TLE_LINE1":"1 55992U 23042G   23093.91667824 -.00668446  00000-0 -49630-2 0  9991","OBJECT_NAME":"STARLINK-5962","MEAN_ELEMENT_THEORY":"SGP4","RA_OF_ASC_NODE":"132.2050","OBJECT_ID":"2023-042G","MEAN_MOTION":"15.73810142","EPHEMERIS_TYPE":"0","APOAPSIS":"349.090","DECAY_DATE":null,"PERIOD":"91.498","CLASSIFICATION_TYPE":"U","FILE":"3879093","ARG_OF_PERICENTER":"266.0103","GP_ID":"229395917","MEAN_MOTION_DOT":"-0.00668446","EPOCH":"2023-04-03T22:00:00.999936","RCS_SIZE":null,"NORAD_CAT_ID":"55992","REF_FRAME":"TEME","MEAN_MOTION_DDOT":"0.0000000000000","SITE":"AFETR","PERIAPSIS":"346.952","ELEMENT_SET_NO":"999","SEMIMAJOR_AXIS":"6726.156","TLE_LINE2":"2 55992  43.0019 132.2050 0001589 266.0103   5.6614 15.73810142  1974","OBJECT_TYPE":"PAYLOAD","CENTER_NAME":"EARTH","ECCENTRICITY":"0.00015890","REV_AT_EPOCH":"197","INCLINATION":"43.0019","BSTAR":"-0.00496300000000","TIME_SYSTEM":"UTC","COUNTRY_CODE":"US"},{"PERIAPSIS":"346.642","ELEMENT_SET_NO":"999","REF_FRAME":"TEME","SITE":"AFETR","MEAN_MOTION_DDOT":"0.0000000000000","OBJECT_TYPE":"PAYLOAD","TLE_LINE2":"2 55993  43.0003 132.2116 0001624 282.2125 347.5237 15.73910728  1302","SEMIMAJOR_AXIS":"6725.870","CENTER_NAME":"EARTH","REV_AT_EPOCH":"130","INCLINATION":"43.0003","ECCENTRICITY":"0.00016240","COUNTRY_CODE":"US","BSTAR":"-0.00509980000000","TIME_SYSTEM":"UTC","MEAN_ELEMENT_THEORY":"SGP4","OBJECT_ID":"2023-042H","RA_OF_ASC_NODE":"132.2116","MEAN_ANOMALY":"347.5237","LAUNCH_DATE":"2023-03-24","OBJECT_NAME":"STARLINK-5969","TLE_LINE1":"1 55993U 23042H   23093.91667824 -.00688260  00000-0 -50998-2 0  9997","PERIOD":"91.492","CLASSIFICATION_TYPE":"U","APOAPSIS":"348.827","EPHEMERIS_TYPE":"0","MEAN_MOTION":"15.73910728","DECAY_DATE":null,"RCS_SIZE":null,"GP_ID":"229428160","FILE":"3879321","ARG_OF_PERICENTER":"282.2125","EPOCH":"2023-04-03T22:00:00.999936","MEAN_MOTION_DOT":"-0.00688260","NORAD_CAT_ID":"55993"},{"ARG_OF_PERICENTER":"266.9894","FILE":"3879104","GP_ID":"229396224","MEAN_MOTION_DOT":"-0.00648282","EPOCH":"2023-04-03T22:00:00.999936","RCS_SIZE":null,"NORAD_CAT_ID":"55994","MEAN_ANOMALY":"5.1969","LAUNCH_DATE":"2023-03-24","TLE_LINE1":"1 55994U 23042J   23093.91667824 -.00648282  00000-0 -47695-2 0  9998","OBJECT_NAME":"STARLINK-5956","MEAN_ELEMENT_THEORY":"SGP4","RA_OF_ASC_NODE":"132.2038","OBJECT_ID":"2023-042J","EPHEMERIS_TYPE":"0","MEAN_MOTION":"15.73965281","APOAPSIS":"348.612","DECAY_DATE":null,"CLASSIFICATION_TYPE":"U","PERIOD":"91.489","ECCENTRICITY":"0.00015360","REV_AT_EPOCH":"197","INCLINATION":"43.0019","BSTAR":"-0.00476950000000","TIME_SYSTEM":"UTC","COUNTRY_CODE":"US","REF_FRAME":"TEME","MEAN_MOTION_DDOT":"0.0000000000000","SITE":"AFETR","PERIAPSIS":"346.546","ELEMENT_SET_NO":"999","TLE_LINE2":"2 55994  43.0019 132.2038 0001536 266.9894   5.1969 15.73965281  1973","OBJECT_TYPE":"PAYLOAD","SEMIMAJOR_AXIS":"6725.714","CENTER_NAME":"EARTH"}];
